{
  "type": "FeatureCollection",
  "features": [
    {
      "type": "Feature",
      "properties": {
        "norad_id": 37966,
        "name": "COSMOS 2251 DEB",
        "group": "cosmos-2251-debris",
        "lat": -40.08221272076671,
        "lon": 51.72971162663989,
        "alt_km": 534.7578098395388,
        "timestamp": "2025-12-18T21:31:51.403034+00:00",
        "meta_object_name": "COSMOS 2251 DEB",
        "meta_object_id": "1993-036BPR",
        "meta_epoch": "2025-12-13T08:51:38.453184",
        "meta_mean_motion": 15.12754556,
        "meta_eccentricity": 0.00088035,
        "meta_inclination": 73.9781,
        "meta_ra_of_asc_node": 229.2381,
        "meta_arg_of_pericenter": 105.8293,
        "meta_mean_anomaly": 254.3871,
        "meta_ephemeris_type": 0,
        "meta_classification_type": "U",
        "meta_norad_cat_id": 37966,
        "meta_element_set_no": 999,
        "meta_rev_at_epoch": 85352,
        "meta_bstar": 0.0051051315,
        "meta_mean_motion_dot": 0.00090719,
        "meta_mean_motion_ddot": 0,
        "tle_line1": "1 37966U 93036BPR 25347.36919506  .00090719  00000+0  51051-2 0  9991",
        "tle_line2": "2 37966  73.9781 229.2381 0008803 105.8293 254.3871 15.12754556853526"
      },
      "geometry": {
        "type": "Point",
        "coordinates": [
          51.72971162663989,
          -40.08221272076671
        ]
      }
    },
    {
      "type": "Feature",
      "properties": {
        "norad_id": 37967,
        "name": "COSMOS 2251 DEB",
        "group": "cosmos-2251-debris",
        "lat": 71.49271511522636,
        "lon": -175.1164106014065,
        "alt_km": 856.9506169506503,
        "timestamp": "2025-12-18T21:31:51.403044+00:00",
        "meta_object_name": "COSMOS 2251 DEB",
        "meta_object_id": "1993-036BPS",
        "meta_epoch": "2025-12-18T02:49:02.762976",
        "meta_mean_motion": 14.40572571,
        "meta_eccentricity": 0.01510178,
        "meta_inclination": 74.0151,
        "meta_ra_of_asc_node": 127.4202,
        "meta_arg_of_pericenter": 265.0646,
        "meta_mean_anomaly": 93.3255,
        "meta_ephemeris_type": 0,
        "meta_classification_type": "U",
        "meta_norad_cat_id": 37967,
        "meta_element_set_no": 999,
        "meta_rev_at_epoch": 64813,
        "meta_bstar": 0.0013319552,
        "meta_mean_motion_dot": 4.831e-05,
        "meta_mean_motion_ddot": 0,
        "tle_line1": "1 37967U 93036BPS 25352.11739309  .00004831  00000+0  13320-2 0  9999",
        "tle_line2": "2 37967  74.0151 127.4202 0151017 265.0646  93.3255 14.40572571648139"
      },
      "geometry": {
        "type": "Point",
        "coordinates": [
          -175.1164106014065,
          71.49271511522636
        ]
      }
    },
    {
      "type": "Feature",
      "properties": {
        "norad_id": 37968,
        "name": "COSMOS 2251 DEB",
        "group": "cosmos-2251-debris",
        "lat": 51.394613988989654,
        "lon": 57.54529177131614,
        "alt_km": 580.4408122458353,
        "timestamp": "2025-12-18T21:31:51.403054+00:00",
        "meta_object_name": "COSMOS 2251 DEB",
        "meta_object_id": "1993-036BPT",
        "meta_epoch": "2025-12-13T01:47:19.855104",
        "meta_mean_motion": 15.00631757,
        "meta_eccentricity": 0.00804168,
        "meta_inclination": 74.0008,
        "meta_ra_of_asc_node": 270.4748,
        "meta_arg_of_pericenter": 26.0563,
        "meta_mean_anomaly": 334.4636,
        "meta_ephemeris_type": 0,
        "meta_classification_type": "U",
        "meta_norad_cat_id": 37968,
        "meta_element_set_no": 999,
        "meta_rev_at_epoch": 60224,
        "meta_bstar": 0.0014144446,
        "meta_mean_motion_dot": 0.0001917,
        "meta_mean_motion_ddot": 0,
        "tle_line1": "1 37968U 93036BPT 25347.07453536  .00019170  00000+0  14144-2 0  9991",
        "tle_line2": "2 37968  74.0008 270.4748 0080416  26.0563 334.4636 15.00631757602245"
      },
      "geometry": {
        "type": "Point",
        "coordinates": [
          57.54529177131614,
          51.394613988989654
        ]
      }
    },
    {
      "type": "Feature",
      "properties": {
        "norad_id": 37971,
        "name": "COSMOS 2251 DEB",
        "group": "cosmos-2251-debris",
        "lat": -28.623085489492038,
        "lon": 21.160963352846757,
        "alt_km": 780.5403838071834,
        "timestamp": "2025-12-18T21:31:51.403067+00:00",
        "meta_object_name": "COSMOS 2251 DEB",
        "meta_object_id": "1993-036BPW",
        "meta_epoch": "2025-12-15T20:44:52.764576",
        "meta_mean_motion": 14.48694104,
        "meta_eccentricity": 0.00668395,
        "meta_inclination": 73.9939,
        "meta_ra_of_asc_node": 35.8693,
        "meta_arg_of_pericenter": 174.332,
        "meta_mean_anomaly": 185.8612,
        "meta_ephemeris_type": 0,
        "meta_classification_type": "U",
        "meta_norad_cat_id": 37971,
        "meta_element_set_no": 999,
        "meta_rev_at_epoch": 60723,
        "meta_bstar": 0.0012835139,
        "meta_mean_motion_dot": 4.95e-05,
        "meta_mean_motion_ddot": 0,
        "tle_line1": "1 37971U 93036BPW 25349.86449959  .00004950  00000+0  12835-2 0  9993",
        "tle_line2": "2 37971  73.9939  35.8693 0066839 174.3320 185.8612 14.48694104607235"
      },
      "geometry": {
        "type": "Point",
        "coordinates": [
          21.160963352846757,
          -28.623085489492038
        ]
      }
    },
    {
      "type": "Feature",
      "properties": {
        "norad_id": 37975,
        "name": "COSMOS 2251 DEB",
        "group": "cosmos-2251-debris",
        "lat": 66.3025859546464,
        "lon": 91.16599946657352,
        "alt_km": 699.1882773411044,
        "timestamp": "2025-12-18T21:31:51.403080+00:00",
        "meta_object_name": "COSMOS 2251 DEB",
        "meta_object_id": "1993-036BQA",
        "meta_epoch": "2025-12-18T06:24:18.775872",
        "meta_mean_motion": 14.76341165,
        "meta_eccentricity": 0.00951612,
        "meta_inclination": 74.0019,
        "meta_ra_of_asc_node": 313.2207,
        "meta_arg_of_pericenter": 301.4276,
        "meta_mean_anomaly": 57.7618,
        "meta_ephemeris_type": 0,
        "meta_classification_type": "U",
        "meta_norad_cat_id": 37975,
        "meta_element_set_no": 999,
        "meta_rev_at_epoch": 69827,
        "meta_bstar": 0.0032629501,
        "meta_mean_motion_dot": 0.00024448,
        "meta_mean_motion_ddot": 0,
        "tle_line1": "1 37975U 93036BQA 25352.26688398  .00024448  00000+0  32630-2 0  9996",
        "tle_line2": "2 37975  74.0019 313.2207 0095161 301.4276  57.7618 14.76341165698271"
      },
      "geometry": {
        "type": "Point",
        "coordinates": [
          91.16599946657352,
          66.3025859546464
        ]
      }
    },
    {
      "type": "Feature",
      "properties": {
        "norad_id": 37978,
        "name": "COSMOS 2251 DEB",
        "group": "cosmos-2251-debris",
        "lat": 45.418778779991705,
        "lon": 91.78767124822946,
        "alt_km": 252.8418267689367,
        "timestamp": "2025-12-18T21:31:51.403090+00:00",
        "meta_object_name": "COSMOS 2251 DEB",
        "meta_object_id": "1993-036BQD",
        "meta_epoch": "2025-11-19T05:08:53.100672",
        "meta_mean_motion": 15.61137081,
        "meta_eccentricity": 0.00148985,
        "meta_inclination": 74.0238,
        "meta_ra_of_asc_node": 142.2198,
        "meta_arg_of_pericenter": 140.9849,
        "meta_mean_anomaly": 219.2448,
        "meta_ephemeris_type": 0,
        "meta_classification_type": "U",
        "meta_norad_cat_id": 37978,
        "meta_element_set_no": 999,
        "meta_rev_at_epoch": 8032,
        "meta_bstar": 0.0043958825,
        "meta_mean_motion_dot": 0.0039117,
        "meta_mean_motion_ddot": 0,
        "tle_line1": "1 37978U 93036BQD 25323.21450348  .00391170  00000+0  43959-2 0  9999",
        "tle_line2": "2 37978  74.0238 142.2198 0014898 140.9849 219.2448 15.61137081 80328"
      },
      "geometry": {
        "type": "Point",
        "coordinates": [
          91.78767124822946,
          45.418778779991705
        ]
      }
    },
    {
      "type": "Feature",
      "properties": {
        "norad_id": 37985,
        "name": "COSMOS 2251 DEB",
        "group": "cosmos-2251-debris",
        "lat": -7.669067845301309,
        "lon": -107.77450689018956,
        "alt_km": 763.202895905777,
        "timestamp": "2025-12-18T21:31:51.403101+00:00",
        "meta_object_name": "COSMOS 2251 DEB",
        "meta_object_id": "1993-036BQL",
        "meta_epoch": "2025-12-17T23:49:27.671232",
        "meta_mean_motion": 14.35484605,
        "meta_eccentricity": 0.00210144,
        "meta_inclination": 74.0252,
        "meta_ra_of_asc_node": 256.0955,
        "meta_arg_of_pericenter": 17.3481,
        "meta_mean_anomaly": 342.8385,
        "meta_ephemeris_type": 0,
        "meta_classification_type": "U",
        "meta_norad_cat_id": 37985,
        "meta_element_set_no": 999,
        "meta_rev_at_epoch": 64992,
        "meta_bstar": 4.3734025e-05,
        "meta_mean_motion_dot": 1e-06,
        "meta_mean_motion_ddot": 0,
        "tle_line1": "1 37985U 93036BQL 25351.99268138  .00000100  00000+0  43734-4 0  9990",
        "tle_line2": "2 37985  74.0252 256.0955 0021014  17.3481 342.8385 14.35484605649921"
      },
      "geometry": {
        "type": "Point",
        "coordinates": [
          -107.77450689018956,
          -7.669067845301309
        ]
      }
    }
  ]
}